     2.10           G: GLONASS NAV DATA                     RINEX VERSION / TYPE
teqc  2015Jun23                         20220503 01:25:41UTCPGM / RUN BY / DATE
Linux 2.4.21-27.ELsmp|Opteron|gcc -static|Linux x86_64|=+   COMMENT
  2022     4    22   -1.396983861923D-09                    CORR TO SYSTEM TIME
                                                            END OF HEADER
24 22  4 23 16 15  0.0 9.045284241438D-05 1.818989403546D-12 5.781000000000D+04
    8.935416015625D+03 1.163864135742D-01 2.793967723846D-09 0.000000000000D+00
    1.453232666016D+04 2.595837593079D+00 9.313225746155D-10 2.000000000000D+00
    1.897355517578D+04-2.044844627380D+00-0.000000000000D+00 0.000000000000D+00
12 22  4 23 16 45  0.0 1.807045191526D-05-0.000000000000D+00 5.940000000000D+04
   -5.983036132812D+03-1.928970336914D+00-9.313225746155D-10 0.000000000000D+00
    1.632446679688D+04 1.681129455566D+00-0.000000000000D+00-1.000000000000D+00
   -1.863461621094D+04 2.091132164001D+00 9.313225746155D-10 0.000000000000D+00
22 22  4 23 16 45  0.0-1.787552610040D-04-9.094947017729D-13 5.940000000000D+04
   -5.953340820312D+03-1.701765060425D-01-9.313225746155D-10 0.000000000000D+00
    1.686291650391D+04-2.495325088501D+00-0.000000000000D+00-3.000000000000D+00
   -1.825587792969D+04-2.242022514343D+00 9.313225746155D-10 0.000000000000D+00
10 22  4 23 16 45  0.0-8.175987750292D-05-0.000000000000D+00 5.940000000000D+04
   -1.959747949219D+04 1.618480682373D+00 9.313225746155D-10 0.000000000000D+00
    7.133133789062D+03-1.192650794983D+00-0.000000000000D+00-7.000000000000D+00
    1.462422558594D+04 2.755210876465D+00-2.793967723846D-09 0.000000000000D+00
23 22  4 23 16 45  0.0-3.820285201073D-05-9.094947017729D-13 5.940000000000D+04
    3.484772949219D+03 2.521715164185D-01 9.313225746155D-10 0.000000000000D+00
    2.527346386719D+04-6.895065307617D-03 0.000000000000D+00 3.000000000000D+00
    1.835385742188D+02-3.609596252441D+00 9.313225746155D-10 0.000000000000D+00
24 22  4 23 16 45  0.0 9.045936167240D-05 1.818989403546D-12 5.940000000000D+04
    9.438506835938D+03 4.118919372559D-01 2.793967723846D-09 0.000000000000D+00
    1.866622119141D+04 1.961140632629D+00 9.313225746155D-10 2.000000000000D+00
    1.460743359375D+04-2.774974822998D+00 0.000000000000D+00 0.000000000000D+00
 1 22  4 23 16 45  0.0 8.045695722103D-06 0.000000000000D+00 5.946000000000D+04
    4.704943359375D+03-2.758756637573D+00 2.793967723846D-09 0.000000000000D+00
    1.275483251953D+04-1.055750846863D+00 9.313225746155D-10 1.000000000000D+00
    2.158776708984D+04 1.226845741272D+00-9.313225746155D-10 0.000000000000D+00
 1 22  4 23 17 15  0.0 8.043833076954D-06 0.000000000000D+00 6.120000000000D+04
   -5.743642578125D+02-3.061264038086D+00 2.793967723846D-09 0.000000000000D+00
    1.116720898438D+04-6.860523223877D-01 0.000000000000D+00 1.000000000000D+00
    2.293363330078D+04 2.589159011841D-01-9.313225746155D-10 0.000000000000D+00
12 22  4 23 17 15  0.0 1.806952059269D-05-0.000000000000D+00 6.120000000000D+04
   -8.852967773438D+03-1.251677513123D+00-9.313225746155D-10 0.000000000000D+00
    1.922772021484D+04 1.498625755310D+00-0.000000000000D+00-1.000000000000D+00
   -1.419714306641D+04 2.807282447815D+00 0.000000000000D+00 0.000000000000D+00
22 22  4 23 17 15  0.0-1.787589862943D-04-1.818989403546D-12 6.120000000000D+04
   -6.700215820312D+03-6.719312667847D-01-1.862645149231D-09 0.000000000000D+00
    1.198936572266D+04-2.870617866516D+00-0.000000000000D+00-3.000000000000D+00
   -2.153755908203D+04-1.380558013916D+00 9.313225746155D-10 0.000000000000D+00
23 22  4 23 17 15  0.0-3.820564597845D-05-9.094947017729D-13 6.120000000000D+04
    3.756711425781D+03 9.828567504883D-03 9.313225746155D-10 0.000000000000D+00
    2.445505859375D+04-8.871488571167D-01 0.000000000000D+00 3.000000000000D+00
   -6.236929687500D+03-3.477969169617D+00 9.313225746155D-10 0.000000000000D+00
24 22  4 23 17 15  0.0 9.046215564013D-05 1.818989403546D-12 6.120000000000D+04
    1.028843603516D+04 4.923982620239D-01 1.862645149231D-09 0.000000000000D+00
    2.149064843750D+04 1.157641410828D+00 9.313225746155D-10 2.000000000000D+00
    9.112485839844D+03-3.290926933289D+00 0.000000000000D+00 0.000000000000D+00
12 22  4 23 17 45  0.0 1.806952059269D-05-0.000000000000D+00 6.300000000000D+04
   -1.049378710938D+04-5.820360183716D-01-0.000000000000D+00 0.000000000000D+00
    2.155734619141D+04 1.047370910645D+00-9.313225746155D-10-1.000000000000D+00
   -8.659361816406D+03 3.305736541748D+00-0.000000000000D+00 0.000000000000D+00
24 22  4 23 17 45  0.0 9.046588093042D-05 1.818989403546D-12 6.300000000000D+04
    1.106024218750D+04 3.229417800903D-01 1.862645149231D-09 0.000000000000D+00
    2.279828515625D+04 2.953052520752D-01 0.000000000000D+00 2.000000000000D+00
    2.913049804688D+03-3.552617073059D+00 9.313225746155D-10 0.000000000000D+00
22 22  4 23 17 45  0.0-1.787627115846D-04-1.818989403546D-12 6.300000000000D+04
   -8.382988769531D+03-1.191308021545D+00-2.793967723846D-09 0.000000000000D+00
    6.713941894531D+03-2.938758850098D+00-0.000000000000D+00-3.000000000000D+00
   -2.316118017578D+04-4.115381240845D-01 9.313225746155D-10 0.000000000000D+00
23 22  4 23 17 45  0.0-3.820750862360D-05-9.094947017729D-13 6.300000000000D+04
    3.391149414062D+03-4.461641311646D-01 0.000000000000D+00 0.000000000000D+00
    2.216798583984D+04-1.621134757996D+00 0.000000000000D+00 3.000000000000D+00
   -1.217555761719D+04-3.077720642090D+00 9.313225746155D-10 0.000000000000D+00
13 22  4 23 17 45  0.0-2.132169902325D-05-0.000000000000D+00 6.303000000000D+04
    1.784051757812D+03-1.586578369141D+00-9.313225746155D-10 0.000000000000D+00
    1.471121191406D+04 2.356698989868D+00-0.000000000000D+00-2.000000000000D+00
   -2.077929443359D+04 1.533568382263D+00 1.862645149231D-09 0.000000000000D+00
13 22  4 23 18 15  0.0-2.132263034582D-05-0.000000000000D+00 6.480000000000D+04
   -5.545419921875D+02-1.008518218994D+00-9.313225746155D-10 0.000000000000D+00
    1.879632421875D+04 2.133980751038D+00-0.000000000000D+00-2.000000000000D+00
   -1.725251318359D+04 2.359725952148D+00 9.313225746155D-10 0.000000000000D+00
12 22  4 23 18 15  0.0 1.806952059269D-05-0.000000000000D+00 6.480000000000D+04
   -1.101698388672D+04-2.607154846191D-02-0.000000000000D+00 0.000000000000D+00
    2.286242626953D+04 3.710460662842D-01-9.313225746155D-10-1.000000000000D+00
   -2.450656738281D+03 3.547926902771D+00-9.313225746155D-10 0.000000000000D+00
23 22  4 23 18 15  0.0-3.821030259132D-05-9.094947017729D-13 6.480000000000D+04
    2.068671875000D+03-1.037655830383D+00-0.000000000000D+00 0.000000000000D+00
    1.876177929688D+04-2.118423461914D+00-0.000000000000D+00 3.000000000000D+00
   -1.717381787109D+04-2.439908981323D+00 9.313225746155D-10 0.000000000000D+00
24 22  4 23 18 15  0.0 9.046867489815D-05 1.818989403546D-12 6.480000000000D+04
    1.130625488281D+04-8.630657196045D-02 9.313225746155D-10 0.000000000000D+00
    2.258885253906D+04-5.089263916016D-01 0.000000000000D+00 2.000000000000D+00
   -3.511665039062D+03-3.539574623108D+00 9.313225746155D-10 0.000000000000D+00
17 22  4 23 18 15  0.0 5.200766026974D-04 2.728484105319D-12 6.519000000000D+04
    1.592645800781D+04 1.114048957825D+00 2.793967723846D-09 0.000000000000D+00
    1.456709033203D+04 1.502189636230D+00 0.000000000000D+00 4.000000000000D+00
    1.357342529297D+04-2.922854423523D+00 0.000000000000D+00 0.000000000000D+00
 1 22  4 23 18 15  0.0 8.045695722103D-06 0.000000000000D+00 6.600000000000D+04
   -1.144375781250D+04-2.776376724243D+00 9.313225746155D-10 0.000000000000D+00
    1.031212011719D+04 1.954698562622D-01-9.313225746155D-10 1.000000000000D+00
    2.034419238281D+04-1.659910202026D+00-2.793967723846D-09 0.000000000000D+00
13 22  4 23 18 45  0.0-2.132263034582D-05-0.000000000000D+00 6.660000000000D+04
   -1.867462890625D+03-4.648685455322D-01-9.313225746155D-10 0.000000000000D+00
    2.222609130859D+04 1.633686065674D+00-0.000000000000D+00-2.000000000000D+00
   -1.239368505859D+04 3.004010200500D+00 0.000000000000D+00 0.000000000000D+00
12 22  4 23 18 45  0.0 1.806952059269D-05 0.000000000000D+00 6.660000000000D+04
   -1.070608154297D+04 3.337593078613D-01-0.000000000000D+00 0.000000000000D+00
    2.280688085938D+04-4.481325149536D-01-9.313225746155D-10-1.000000000000D+00
    3.947864257812D+03 3.515322685242D+00-1.862645149231D-09 0.000000000000D+00
 1 22  4 23 18 45  0.0 8.046627044678D-06 0.000000000000D+00 6.660000000000D+04
   -1.597360058594D+04-2.217986106873D+00 0.000000000000D+00 0.000000000000D+00
    1.096363281250D+04 5.002679824829D-01-9.313225746155D-10 1.000000000000D+00
    1.660946679688D+04-2.462875366211D+00-2.793967723846D-09 0.000000000000D+00
17 22  4 23 18 45  0.0 5.200821906328D-04 2.728484105319D-12 6.660000000000D+04
    1.772163964844D+04 8.357295989990D-01 2.793967723846D-09 0.000000000000D+00
    1.655859082031D+04 7.115383148193D-01-0.000000000000D+00 4.000000000000D+00
    7.854839355469D+03-3.389838218689D+00 0.000000000000D+00 0.000000000000D+00
23 22  4 23 18 45  0.0-3.821216523647D-05-9.094947017729D-13 6.660000000000D+04
   -3.628369140625D+02-1.659539222717D+00-1.862645149231D-09 0.000000000000D+00
    1.471573974609D+04-2.327160835266D+00 0.000000000000D+00 3.000000000000D+00
   -2.084598486328D+04-1.613839149475D+00 9.313225746155D-10 0.000000000000D+00
24 22  4 23 18 45  0.0 9.047240018845D-05 1.818989403546D-12 6.660000000000D+04
    1.063738525391D+04-6.812782287598D-01 0.000000000000D+00 0.000000000000D+00
    2.106462744141D+04-1.150007247925D+00-0.000000000000D+00 2.000000000000D+00
   -9.664637695312D+03-3.252617835999D+00 9.313225746155D-10 0.000000000000D+00
13 22  4 23 19 15  0.0-2.132356166840D-05-0.000000000000D+00 6.840000000000D+04
   -2.308802734375D+03-5.487060546875D-02-0.000000000000D+00 0.000000000000D+00
    2.454165722656D+04 9.080705642700D-01-0.000000000000D+00-2.000000000000D+00
   -6.577505371094D+03 3.416513442993D+00-0.000000000000D+00 0.000000000000D+00
